{
  "norad_id": 33056,
  "name": "TURKSAT 3A",
  "history": [
    {
      "epoch": "2026-03-28T20:07:10.177536Z",
      "apogee_km": 35807.24797170341,
      "perigee_km": 35765.543875479336,
      "latitude_deg": 0.04859274630112648,
      "longitude_deg": 42.01900105145089,
      "height_km": 35801.89753436953,
      "semi_major_axis_km": 42164.532923591374,
      "eccentricity": 0.00049454,
      "inclination_deg": 0.0585,
      "raan_deg": 77.9565,
      "arg_perigee_deg": 312.315,
      "mean_anomaly_deg": 139.733,
      "mean_motion_rev_day": 1.00272495
    },
    {
      "epoch": "2026-03-29T02:57:52.716384Z",
      "apogee_km": 35807.26747054734,
      "perigee_km": 35765.43186687464,
      "latitude_deg": 0.010431366233623245,
      "longitude_deg": 41.93300875576936,
      "height_km": 35795.537907665224,
      "semi_major_axis_km": 42164.48666871099,
      "eccentricity": 0.0004961,
      "inclination_deg": 0.0593,
      "raan_deg": 77.9893,
      "arg_perigee_deg": 312.7695,
      "mean_anomaly_deg": 242.2052,
      "mean_motion_rev_day": 1.0027266
    },
    {
      "epoch": "2026-03-30T02:55:21.239040Z",
      "apogee_km": 35807.4275093511,
      "perigee_km": 35764.93430976185,
      "latitude_deg": 0.011886027194443384,
      "longitude_deg": 41.936142955219196,
      "height_km": 35795.93613676949,
      "semi_major_axis_km": 42164.31790955648,
      "eccentricity": 0.0005039,
      "inclination_deg": 0.062,
      "raan_deg": 77.9761,
      "arg_perigee_deg": 314.4125,
      "mean_anomaly_deg": 240.9328,
      "mean_motion_rev_day": 1.00273262
    },
    {
      "epoch": "2026-03-30T04:38:03.888384Z",
      "apogee_km": 35807.44299146511,
      "perigee_km": 35764.89920459421,
      "latitude_deg": -0.012156816588561131,
      "longitude_deg": 41.929237928295336,
      "height_km": 35786.854213263905,
      "semi_major_axis_km": 42164.308098029665,
      "eccentricity": 0.0005045,
      "inclination_deg": 0.0622,
      "raan_deg": 77.969,
      "arg_perigee_deg": 314.5565,
      "mean_anomaly_deg": 266.5443,
      "mean_motion_rev_day": 1.00273297
    },
    {
      "epoch": "2026-03-30T04:38:03.889248Z",
      "apogee_km": 35807.443834751284,
      "perigee_km": 35764.89836130804,
      "latitude_deg": -0.01215681443614781,
      "longitude_deg": 41.92923202406436,
      "height_km": 35786.85426090907,
      "semi_major_axis_km": 42164.308098029665,
      "eccentricity": 0.00050452,
      "inclination_deg": 0.0622,
      "raan_deg": 77.969,
      "arg_perigee_deg": 314.5565,
      "mean_anomaly_deg": 266.5443,
      "mean_motion_rev_day": 1.00273297
    },
    {
      "epoch": "2026-03-30T14:54:07.367904Z",
      "apogee_km": 35807.56753529304,
      "perigee_km": 35764.631693148775,
      "latitude_deg": -0.012368703138432803,
      "longitude_deg": 42.03929421812933,
      "height_km": 35775.04202584874,
      "semi_major_axis_km": 42164.23661422091,
      "eccentricity": 0.00050915,
      "inclination_deg": 0.0634,
      "raan_deg": 77.9463,
      "arg_perigee_deg": 315.2161,
      "mean_anomaly_deg": 60.3457,
      "mean_motion_rev_day": 1.00273552
    },
    {
      "epoch": "2026-03-31T14:51:42.410304Z",
      "apogee_km": 35807.926673881506,
      "perigee_km": 35763.983257235,
      "latitude_deg": -0.01614585418616852,
      "longitude_deg": 42.043941390506326,
      "height_km": 35774.50480414156,
      "semi_major_axis_km": 42164.091965558255,
      "eccentricity": 0.0005211,
      "inclination_deg": 0.0449,
      "raan_deg": 70.231,
      "arg_perigee_deg": 323.7368,
      "mean_anomaly_deg": 59.9266,
      "mean_motion_rev_day": 1.00274068
    },
    {
      "epoch": "2026-04-01T11:23:54.919680Z",
      "apogee_km": 35808.16812067374,
      "perigee_km": 35763.49960993904,
      "latitude_deg": -0.030054141768805675,
      "longitude_deg": 42.00535357287686,
      "height_km": 35763.109211151896,
      "semi_major_axis_km": 42163.97086530639,
      "eccentricity": 0.0005297,
      "inclination_deg": 0.0468,
      "raan_deg": 69.799,
      "arg_perigee_deg": 325.857,
      "mean_anomaly_deg": 7.1421,
      "mean_motion_rev_day": 1.002745
    },
    {
      "epoch": "2026-04-02T14:46:45.233184Z",
      "apogee_km": 35808.421532049055,
      "perigee_km": 35762.85935414405,
      "latitude_deg": -0.01706976221718817,
      "longitude_deg": 42.059075599788656,
      "height_km": 35772.79434878694,
      "semi_major_axis_km": 42163.77744309656,
      "eccentricity": 0.0005403,
      "inclination_deg": 0.049,
      "raan_deg": 70.4071,
      "arg_perigee_deg": 327.1964,
      "mean_anomaly_deg": 57.0415,
      "mean_motion_rev_day": 1.0027519
    },
    {
      "epoch": "2026-04-02T14:46:45.234048Z",
      "apogee_km": 35808.421532049055,
      "perigee_km": 35762.85935414405,
      "latitude_deg": -0.01706976222072605,
      "longitude_deg": 42.05907198990118,
      "height_km": 35772.79434878681,
      "semi_major_axis_km": 42163.77744309656,
      "eccentricity": 0.0005403,
      "inclination_deg": 0.049,
      "raan_deg": 70.4071,
      "arg_perigee_deg": 327.1964,
      "mean_anomaly_deg": 57.0415,
      "mean_motion_rev_day": 1.0027519
    },
    {
      "epoch": "2026-04-03T19:52:21.679680Z",
      "apogee_km": 35808.88680416589,
      "perigee_km": 35765.92854725028,
      "latitude_deg": 0.023895659354075158,
      "longitude_deg": 42.04176561983045,
      "height_km": 35802.22405172015,
      "semi_major_axis_km": 42165.544675708086,
      "eccentricity": 0.0005094,
      "inclination_deg": 0.0511,
      "raan_deg": 71.6093,
      "arg_perigee_deg": 325.5576,
      "mean_anomaly_deg": 135.0718,
      "mean_motion_rev_day": 1.00268886
    },
    {
      "epoch": "2026-04-04T04:23:38.704704Z",
      "apogee_km": 35808.292439124685,
      "perigee_km": 35765.98464495131,
      "latitude_deg": 0.0008801204105145258,
      "longitude_deg": 41.941609844019126,
      "height_km": 35789.167146365464,
      "semi_major_axis_km": 42165.275542038,
      "eccentricity": 0.00050169,
      "inclination_deg": 0.0518,
      "raan_deg": 71.4125,
      "arg_perigee_deg": 326.0525,
      "mean_anomaly_deg": 262.9437,
      "mean_motion_rev_day": 1.00269846
    },
    {
      "epoch": "2026-04-05T14:46:37.755264Z",
      "apogee_km": 35808.96961536926,
      "perigee_km": 35765.176828033,
      "latitude_deg": -0.007401774017737871,
      "longitude_deg": 42.03450411219568,
      "height_km": 35775.01257292421,
      "semi_major_axis_km": 42165.210221701134,
      "eccentricity": 0.0005193,
      "inclination_deg": 0.054,
      "raan_deg": 70.8644,
      "arg_perigee_deg": 328.6301,
      "mean_anomaly_deg": 58.0596,
      "mean_motion_rev_day": 1.00270079
    },
    {
      "epoch": "2026-04-06T04:20:47.060736Z",
      "apogee_km": 35809.05412729969,
      "perigee_km": 35764.925792028786,
      "latitude_deg": -0.009418945475872785,
      "longitude_deg": 41.9212127831919,
      "height_km": 35789.76366491992,
      "semi_major_axis_km": 42165.126959664245,
      "eccentricity": 0.00052328,
      "inclination_deg": 0.0548,
      "raan_deg": 72.7016,
      "arg_perigee_deg": 327.6337,
      "mean_anomaly_deg": 261.3125,
      "mean_motion_rev_day": 1.00270376
    },
    {
      "epoch": "2026-04-07T12:51:44.098848Z",
      "apogee_km": 35809.145332235035,
      "perigee_km": 35764.45892974401,
      "latitude_deg": -0.018520744125076895,
      "longitude_deg": 42.003619219820415,
      "height_km": 35766.66639993921,
      "semi_major_axis_km": 42164.93913098952,
      "eccentricity": 0.0005299,
      "inclination_deg": 0.0568,
      "raan_deg": 72.7069,
      "arg_perigee_deg": 329.3499,
      "mean_anomaly_deg": 28.6586,
      "mean_motion_rev_day": 1.00271046
    },
    {
      "epoch": "2026-04-08T12:49:16.575168Z",
      "apogee_km": 35811.876085988515,
      "perigee_km": 35764.384219294494,
      "latitude_deg": -0.01754859532432278,
      "longitude_deg": 42.00077349928351,
      "height_km": 35766.92472847293,
      "semi_major_axis_km": 42166.26715264151,
      "eccentricity": 0.00056315,
      "inclination_deg": 0.0583,
      "raan_deg": 73.2838,
      "arg_perigee_deg": 328.3397,
      "mean_anomaly_deg": 29.4562,
      "mean_motion_rev_day": 1.00266309
    },
    {
      "epoch": "2026-04-09T16:12:11.979360Z",
      "apogee_km": 35808.50795191017,
      "perigee_km": 35763.67894209892,
      "latitude_deg": 0.020124110091628938,
      "longitude_deg": 42.03122665219238,
      "height_km": 35781.849805349935,
      "semi_major_axis_km": 42164.23044700455,
      "eccentricity": 0.0005316,
      "inclination_deg": 0.0552,
      "raan_deg": 69.9674,
      "arg_perigee_deg": 332.7346,
      "mean_anomaly_deg": 80.2359,
      "mean_motion_rev_day": 1.00273574
    },
    {
      "epoch": "2026-04-10T02:28:12.726912Z",
      "apogee_km": 35809.22092689296,
      "perigee_km": 35763.75818324875,
      "latitude_deg": -0.0023035276919413424,
      "longitude_deg": 41.92285981939179,
      "height_km": 35799.847949540934,
      "semi_major_axis_km": 42164.626555070856,
      "eccentricity": 0.00053911,
      "inclination_deg": 0.061,
      "raan_deg": 74.3077,
      "arg_perigee_deg": 330.7133,
      "mean_anomaly_deg": 232.3429,
      "mean_motion_rev_day": 1.00272161
    },
    {
      "epoch": "2026-04-11T17:49:50.835936Z",
      "apogee_km": 35809.06908966381,
      "perigee_km": 35763.56521074491,
      "latitude_deg": 0.040269051532264996,
      "longitude_deg": 42.034471987939796,
      "height_km": 35791.038629314375,
      "semi_major_axis_km": 42164.454150204365,
      "eccentricity": 0.0005396,
      "inclination_deg": 0.0643,
      "raan_deg": 74.9003,
      "arg_perigee_deg": 331.4529,
      "mean_anomaly_deg": 103.0399,
      "mean_motion_rev_day": 1.00272776
    }
  ]
}